CUTE-1 (CO-55)          
1 27844U 03031E   24274.46342729  .00001247  00000+0  56727-3 0  9991
2 27844  98.6803 280.0533 0009361 192.2348 167.8605 14.23496590102795
CUBESAT XI-IV (CO-57)   
1 27848U 03031J   24274.29938253  .00001101  00000+0  50899-3 0  9992
2 27848  98.6834 280.0746 0008945 209.8712 150.1957 14.22904400102536
CUBESAT XI-V            
1 28895U 05043F   24273.85733122  .00006112  00000+0  10561-2 0  9997
2 28895  98.2158  49.9809 0015562  30.2549 329.9551 14.68691411  9811
CUTE-1.7+APD II (CO-65) 
1 32785U 08021C   24274.51398178  .00015430  00000+0  12797-2 0  9997
2 32785  97.7655 239.1601 0009282 349.9824  10.1212 14.98865858891319
AAUSAT-II               
1 32788U 08021F   24273.64964927  .00062106  00000+0  24113-2 0  9991
2 32788  97.6014 254.7824 0007513 128.3605 231.8309 15.25826788894302
CANX-2                  
1 32790U 08021H   24274.15789176  .00013954  00000+0  12130-2 0  9995
2 32790  97.7782 237.4573 0011459 355.1090   5.0018 14.97046079891062
SEEDS II (CO-66)        
1 32791U 08021J   24274.48717306  .00025404  00000+0  16726-2 0  9996
2 32791  97.7005 245.3667 0003441 349.1270  10.9882 15.07509119892446
SWISSCUBE               
1 35932U 09051B   24273.65401723  .00004090  00000+0  86687-3 0  9993
2 35932  98.4539 159.0106 0007460   7.5881 352.5430 14.59732836797799
BEESAT-1                
1 35933U 09051C   24273.88634264  .00003667  00000+0  78439-3 0  9992
2 35933  98.4467 160.0143 0006112  21.8587 338.2872 14.59379209797891
ITUPSAT1                
1 35935U 09051E   24273.22260853  .00002899  00000+0  63714-3 0  9997
2 35935  98.4565 159.0650 0008530  26.2802 333.8828 14.58281465797424
TISAT 1                 
1 36799U 10035E   24273.66780695  .00024478  00000+0  16854-2 0  9998
2 36799  98.0741 167.7745 0002162 218.5969 141.5102 15.05863066772766
AEROCUBE 4.5A           
1 38767U 12048K   24274.18902798  .00033938  00000+0  15448-2 0  9998
2 38767  64.6600 335.4712 0112356 343.2695  16.4731 15.15000383276340
AEROCUBE 4.5B           
1 38768U 12048L   24274.21869318  .00123633  00000+0  29995-2 0  9997
2 38768  64.6491 251.3762 0084094 331.2020  28.4484 15.36748623277490
STRAND-1                
1 39090U 13009E   24273.78103971  .00001238  00000+0  43807-3 0  9996
2 39090  98.3815  99.2122 0007937 304.9673  55.0768 14.36304303607258
BRITE-AUSTRIA           
1 39091U 13009F   24274.26673057  .00000914  00000+0  32938-3 0  9991
2 39091  98.3861  98.9603 0009433 310.6225  49.4140 14.35964355607350
NEE-01 PEGASO           
1 39151U 13018B   24274.29558380  .00010342  00000+0  11511-2 0  9991
2 39151  98.0469  32.5901 0015125  59.7324 300.5386 14.87229932617591
ESTCUBE 1               
1 39161U 13021C   24274.15555420  .00006555  00000+0  92762-3 0  9992
2 39161  97.8186 337.4288 0007650 244.7740 115.2678 14.77391680612625
POPACS 1                
1 39268U 13055D   24274.07179197  .00084730  35790-6  12760-2 0  9992
2 39268  80.9799  29.9008 0364013 112.8550 251.1542 15.04388486577702
POPACS 2                
1 39269U 13055E   24273.85973335  .00033277  00000+0  73787-3 0  9990
2 39269  80.9992 125.3838 0531517   2.7355 357.6543 14.61774523570861
POPACS 3                
1 39270U 13055F   24273.17582251  .00016483  00000+0  44038-3 0  9997
2 39270  81.0094 180.3366 0616311 156.2939 206.7999 14.39994162547911
ZACUBE-1 (TSHEPISOSAT)  
1 39417U 13066B   24274.14139819  .00012544  00000+0  12356-2 0  9999
2 39417  97.7440 227.9409 0049026 170.1559 190.0632 14.91275641587213
WNISAT-1                
1 39423U 13066H   24273.78865774  .00002405  00000+0  46051-3 0  9996
2 39423  97.6687  99.6685 0169557  41.0965 320.2863 14.55816771575654
TRITON-1                
1 39427U 13066M   24274.48930727  .00008819  00000+0  11972-2 0  9997
2 39427  97.8361 189.1440 0102415 102.3716 258.8979 14.75451318581923
DELFI-N3XT              
1 39428U 13066N   24274.04026218  .00017834  00000+0  21303-2 0  9997
2 39428  97.8323 189.7522 0098956 107.5278 253.6777 14.80766454581771
GOMX-1                  
1 39430U 13066Q   24274.46463711  .00006721  00000+0  10960-2 0  9999
2 39430  97.7145 142.4535 0136144 278.0722  80.5055 14.65234183578454
CUBEBUG-2 (LO-74)       
1 39440U 13066AA  24274.08447806  .00013391  00000+0  15061-2 0  9993
2 39440  97.8190 215.6307 0065433 291.8859  67.5407 14.85246772585095
NEE-02 KRYSAOR          
1 39441U 13066AB  24273.78281379  .00009556  00000+0  11754-2 0  9994
2 39441  97.8272 210.7666 0071372 317.0170  42.5480 14.81386324583419
FUNCUBE-1 (AO-73)       
1 39444U 13066AE  24273.61277825  .00016373  00000+0  14782-2 0  9999
2 39444  97.7292 230.8543 0046934 150.5032 209.8851 14.94722790585690
UWE-3                   
1 39446U 13066AG  24274.29830296  .00012494  00000+0  13249-2 0  9990
2 39446  97.7898 221.9560 0056147 232.3964 127.2149 14.88054195584911
BRITE-CA1 (TORONTO)     
1 40020U 14033L   24274.34335550  .00004995  00000+0  79522-3 0  9998
2 40020  97.8926  47.8929 0083219 116.1072 244.8728 14.70112345550428
DUCHIFAT-1              
1 40021U 14033M   24274.24031279  .00039618  00000+0  22899-2 0  9993
2 40021  98.0984 263.8511 0015385 101.8231 258.4725 15.12069548559970
NANOSATC-BR1            
1 40024U 14033Q   24274.39443179  .00027088  00000+0  18035-2 0  9993
2 40024  98.0741 251.1828 0007031 147.3542 212.8120 15.07071496559594
QB50P1                  
1 40025U 14033R   24274.48285431  .00018545  00000+0  13950-2 0  9998
2 40025  98.0536 238.9617 0012311 170.3773 189.7689 15.02540003559182
QB50P2                  
1 40032U 14033Y   24274.28149234  .00019393  00000+0  15172-2 0  9994
2 40032  98.0132 229.7123 0011159 124.8444 235.3830 15.01045335558946
PERSEUS-M2              
1 40037U 14033AD  24272.38500500  .00004197  00000+0  42558-3 0  9990
2 40037  97.9290 203.6040 0011785 207.6495 152.4098 14.91397484557200
PERSEUS-M1              
1 40039U 14033AF  24272.35707054  .00005585  00000+0  56666-3 0  9999
2 40039  97.9069 199.3303 0011579 206.2117 153.8517 14.91227384557051
POLYITAN-1              
1 40042U 14033AJ  24274.19203478  .00029976  00000+0  20258-2 0  9995
2 40042  98.0810 243.1088 0014514 129.6547 230.5961 15.06426860559130
TIGRISAT                
1 40043U 14033AK  24273.70270243  .00006283  00000+0  81583-3 0  9991
2 40043  97.7067  72.0609 0053465 323.7250  36.0342 14.80060850552910
AEROCUBE 6A             
1 40045U 14033AM  24274.47830387  .00014676  00000+0  16558-2 0  9993
2 40045  97.6760  84.0005 0047666 295.6428  63.9868 14.85825984553650
AEROCUBE 6B             
1 40046U 14033AN  24274.24870949  .00017427  00000+0  19223-2 0  9996
2 40046  97.6734  82.5816 0046324 291.2305  68.3966 14.86750805553828
CANX-4                  
1 40055U 14034C   24274.50667243  .00004223  00000+0  58219-3 0  9996
2 40055  98.3867 113.6579 0012610 210.2692 149.7790 14.78723492552142
CANX-5                  
1 40056U 14034D   24274.51114857  .00004209  00000+0  58023-3 0  9993
2 40056  98.3868 113.6714 0012614 210.5843 149.4633 14.78734013552144
UKUBE-1                 
1 40074U 14037F   24274.27750033  .00022818  00000+0  19942-2 0  9993
2 40074  98.3449 210.8720 0006424  83.4668 276.7283 14.96765368554481
BRITE-PL2 (HEWELIUSZ)   
1 40119U 14049B   24274.22752279  .00007734  00000+0  80659-3 0  9999
2 40119  97.8859  13.5029 0015593  23.0559 337.1354 14.89951113548308
AEROCUBE 5C             
1 40965U 15058B   24274.49999175  .00011038  00000+0  95797-3 0  9997
2 40965  64.7710  37.9931 0191886 276.4827  81.4466 14.84266351272653
AEROCUBE 7              
1 40966U 15058C   24274.50469317  .00013628  00000+0  11301-2 0  9995
2 40966  64.7688  30.6897 0186041 276.1168  81.8774 14.86509759272774
FOX-1A (AO-85)          
1 40967U 15058D   24273.99631014  .00010891  00000+0  96596-3 0  9992
2 40967  64.7772  53.7997 0190404 272.3910  85.5412 14.83666271 20532
SINOD-D 1               
1 40968U 15058E   24273.81524513  .00014342  00000+0  12105-2 0  9997
2 40968  64.7779  46.0412 0184167 271.4133  86.5886 14.86072541 23356
SNAP-3 ALICE            
1 40970U 15058G   24274.21772702  .00046040  00000+0  27903-2 0  9992
2 40970  64.7719 355.2117 0149330 269.7592  88.6414 15.01393617 21527
LMRST-SAT               
1 40971U 15058H   24274.51493032  .00011047  00000+0  97671-3 0  9991
2 40971  64.7776  47.7547 0191745 273.6422  84.2778 14.83607965 20611
SNAP-3 EDDIE            
1 40972U 15058J   24274.20138376  .00048178  00000+0  28816-2 0  9994
2 40972  64.7692 348.4525 0149570 270.7629  87.6353 15.01805981 23621
PROPCUBE 3              
1 40973U 15058K   24274.06830927  .00013309  00000+0  11230-2 0  9990
2 40973  64.7720  35.9210 0188029 275.1517  82.8158 14.85648757 21603
BISONSAT                
1 40974U 15058L   24274.49075233  .00027700  00000+0  19360-2 0  9991
2 40974  64.7697   4.8760 0165812 272.9334  85.2816 14.94718579 21483
SNAP-3 JIMI             
1 40975U 15058M   24274.31764051  .00021083  00000+0  16412-2 0  9999
2 40975  64.7710  21.4757 0178666 274.1051  83.9657 14.89470040 20672
PROPCUBE 1 (FLORA)      
1 40976U 15058N   24273.44535923  .00008965  00000+0  82750-3 0  9990
2 40976  64.7751  67.0487 0190217 275.1918  82.7508 14.82369656 23244
SINOD-D 3               
1 40977U 15058P   24273.82245633  .00013549  00000+0  11872-2 0  9999
2 40977  64.7744  58.1148 0183859 274.2628  83.7491 14.84777252 21555
HORYU-4                 
1 41340U 16012D   24273.66395702  .00031122  00000+0  13597-2 0  9993
2 41340  31.0034  12.6900 0007201 324.5417  35.4745 15.20918098474049
RAVAN                   
1 41849U 16067B   24274.47717825  .00024022  00000+0  11899-2 0  9995
2 41849  98.0654  98.6418 0012335  32.6233 327.5758 15.17705500431937
CELTEE 1                
1 41850U 16067C   24274.43604497  .00016579  00000+0  10569-2 0  9994
2 41850  98.1088  89.5596 0001069 161.0126 199.1141 15.08806318431283
